[{"OBJECT_NAME":"STARS (KUKAI)","OBJECT_ID":"2009-002G","EPOCH":"2026-03-09T17:14:18.106368","MEAN_MOTION":14.9493854,"ECCENTRICITY":0.00097723,"INCLINATION":98.1461,"RA_OF_ASC_NODE":12.0831,"ARG_OF_PERICENTER":130.4363,"MEAN_ANOMALY":229.771,"EPHEMERIS_TYPE":0,"CLASSIFICATION_TYPE":"U","NORAD_CAT_ID":33498,"ELEMENT_SET_NO":999,"REV_AT_EPOCH":92361,"BSTAR":0.00058664337,"MEAN_MOTION_DOT":6.351e-5,"MEAN_MOTION_DDOT":0},{"OBJECT_NAME":"STARLINK-6045","OBJECT_ID":"2023-064Q","EPOCH":"2026-03-09T19:14:19.593888","MEAN_MOTION":14.98336196,"ECCENTRICITY":0.00034305,"INCLINATION":69.9997,"RA_OF_ASC_NODE":103.9741,"ARG_OF_PERICENTER":270.779,"MEAN_ANOMALY":89.2976,"EPHEMERIS_TYPE":0,"CLASSIFICATION_TYPE":"U","NORAD_CAT_ID":56462,"ELEMENT_SET_NO":999,"REV_AT_EPOCH":15625,"BSTAR":-4.633554e-5,"MEAN_MOTION_DOT":-6.46e-6,"MEAN_MOTION_DDOT":0}]
