STARS (KUKAI)           
1 33498U 09002G   26068.71826512  .00006351  00000+0  58664-3 0  9998
2 33498  98.1461  12.0831 0009772 130.4363 229.7710 14.94938540923614
STARLINK-6045           
1 56462U 23064Q   26068.80161567 -.00000646  00000+0 -46336-4 0  9997
2 56462  69.9997 103.9741 0003431 270.7790  89.2976 14.98336196156252
